GSAT0101 (PRN E11)      
1 37846U 11060A   21089.20558860 -.00000070  00000-0  00000-0 0  9998
2 37846  56.7987  33.4469 0004365 345.7304  14.2358  1.70475074 58646
GSAT0102 (PRN E12)      
1 37847U 11060B   21089.43243767 -.00000071  00000-0  00000-0 0  9992
2 37847  56.7997  33.4401 0005591 325.6264 219.7877  1.70475278 58653
GSAT0103 (PRN E19)      
1 38857U 12055A   21087.48748863  .00000036  00000-0  00000-0 0  9999
2 38857  55.0257 153.9640 0004318 262.3359  97.7026  1.70473618 52501
GSAT0104 (PRN E20)      
1 38858U 12055B   21089.18170605  .00000035  00000-0  00000-0 0  9991
2 38858  55.0267 153.9169 0003108 266.4289  93.6254  1.70473522 52548
GSAT0201 (PRN E18)      
1 40128U 14050A   21086.91648662 -.00000074  00000-0  00000-0 0  9996
2 40128  50.5030 350.0727 1650941 108.5958 269.9774  1.85518957 42937
GSAT0202 (PRN E14)      
1 40129U 14050B   21087.17915227 -.00000074  00000-0  00000-0 0  9990
2 40129  50.5354 349.1088 1648349 109.4140 269.0720  1.85519582 45107
GSAT0203 (PRN E26)      
1 40544U 15017A   21088.98693083 -.00000070  00000-0  00000-0 0  9994
2 40544  56.5929  33.5470 0004126 282.2682  77.6639  1.70474383 36723
GSAT0204 (PRN E22)      
1 40545U 15017B   21087.00796504 -.00000064  00000-0  00000-0 0  9992
2 40545  56.5982  33.6185 0001673 273.2407  86.7172  1.70474819 37353
GSAT0205 (PRN E24)      
1 40889U 15045A   21087.83613303  .00000022  00000-0  00000-0 0  9993
2 40889  55.9349 274.2611 0005541  26.7905 333.2245  1.70475079 34518
GSAT0206 (PRN E30)      
1 40890U 15045B   21086.88247728  .00000028  00000-0  00000-0 0  9999
2 40890  55.9355 274.2838 0003719  25.1019 334.9097  1.70475189 34528
GSAT0209 (PRN E09)      
1 41174U 15079A   21088.22965794  .00000037  00000-0  00000-0 0  9992
2 41174  55.0421 153.6436 0004769 303.9841  56.0606  1.70473697 32280
GSAT0208 (PRN E08)      
1 41175U 15079B   21089.03593135  .00000036  00000-0  00000-0 0  9998
2 41175  55.0400 153.6204 0003953 303.0550  56.9973  1.70473777 32716
GSAT0211 (PRN E02)      
1 41549U 16030A   21088.57046735  .00000018  00000-0  00000-0 0  9998
2 41549  56.0790 274.1232 0003642 353.5789   6.3977  1.70474814 30188
GSAT0210 (PRN E01)      
1 41550U 16030B   21088.86330942  .00000017  00000-0  00000-0 0  9997
2 41550  56.0781 274.1168 0001914 329.9105  30.0580  1.70474971 30185
GSAT0207 (PRN E07)      
1 41859U 16069A   21087.93575775  .00000036  00000-0  00000-0 0  9994
2 41859  54.6984 153.9433 0004855 290.8072  69.2296  1.70473563 26900
GSAT0212 (PRN E03)      
1 41860U 16069B   21088.37577072  .00000036  00000-0  00000-0 0  9997
2 41860  54.6978 153.9297 0003532 310.9428  49.1163  1.70473459 27166
GSAT0213 (PRN E04)      
1 41861U 16069C   21089.32804613  .00000034  00000-0  00000-0 0  9996
2 41861  54.7002 153.9074 0004401 270.3661  89.6730  1.70473676 27040
GSAT0214 (PRN E05)      
1 41862U 16069D   21088.30191775  .00000036  00000-0  00000-0 0  9994
2 41862  54.6985 153.9311 0003500 274.1657  85.8838  1.70473742 27153
GSAT0215 (PRN E21)      
1 43055U 17079A   21088.79251320  .00000017  00000-0  00000-0 0  9997
2 43055  56.0529 273.9563 0001335 341.3620  18.6127  1.70474067 20500
GSAT0216 (PRN E25)      
1 43056U 17079B   21088.49848517  .00000019  00000-0  00000-0 0  9997
2 43056  56.0536 273.9639 0002698 304.1391  55.8167  1.70474194 20517
GSAT0217 (PRN E27)      
1 43057U 17079C   21088.71860102  .00000018  00000-0  00000+0 0  9995
2 43057  56.0525 273.9583 0002827 325.8829  34.0789  1.70474090 20507
GSAT0218 (PRN E31)      
1 43058U 17079D   21087.17886113  .00000027  00000-0  00000+0 0  9995
2 43058  56.0529 273.9979 0002967 294.7757  65.1841  1.70474138 20473
GSAT0221 (PRN E15)      
1 43564U 18060A   21088.83700878 -.00000069  00000-0  00000-0 0  9993
2 43564  56.9782  33.2526 0005210 293.5658  66.3578  1.70475370 16688
GSAT0222 (PRN E33)      
1 43565U 18060B   21089.05685099 -.00000070  00000-0  00000-0 0  9998
2 43565  56.9805  33.2464 0005107 301.2774  58.6511  1.70475391 16737
GSAT0219 (PRN E36)      
1 43566U 18060C   21086.93108796 -.00000063  00000-0  00000-0 0  9999
2 43566  56.9799  33.3061 0004904 302.4950  57.4347  1.70475463 16674
GSAT0220 (PRN E13)      
1 43567U 18060D   21088.32404288 -.00000067  00000-0  00000-0 0  9994
2 43567  56.9803  33.2687 0004884 298.2000  61.7282  1.70475160 16680
